[{"OBJECT_NAME":"STARLINK-3518","OBJECT_ID":"2022-016U","EPOCH":"2026-03-09T22:16:30.904608","MEAN_MOTION":15.08831596,"ECCENTRICITY":0.00020824,"INCLINATION":53.2202,"RA_OF_ASC_NODE":318.0543,"ARG_OF_PERICENTER":95.3717,"MEAN_ANOMALY":264.7513,"EPHEMERIS_TYPE":0,"CLASSIFICATION_TYPE":"U","NORAD_CAT_ID":51732,"ELEMENT_SET_NO":999,"REV_AT_EPOCH":22474,"BSTAR":2.3749512e-5,"MEAN_MOTION_DOT":9.0e-7,"MEAN_MOTION_DDOT":0},{"OBJECT_NAME":"OBJECT D","OBJECT_ID":"2025-180D","EPOCH":"2026-03-07T14:42:33.383232","MEAN_MOTION":15.14421951,"ECCENTRICITY":0.00131383,"INCLINATION":97.5098,"RA_OF_ASC_NODE":194.941,"ARG_OF_PERICENTER":314.6829,"MEAN_ANOMALY":45.3332,"EPHEMERIS_TYPE":0,"CLASSIFICATION_TYPE":"U","NORAD_CAT_ID":65262,"ELEMENT_SET_NO":999,"REV_AT_EPOCH":3028,"BSTAR":0.00044965302,"MEAN_MOTION_DOT":8.214e-5,"MEAN_MOTION_DDOT":0}]
